{"type": "FeatureCollection", "features": [ {"type": "Feature", "properties": {"norad_id": 30224, "name": "FENGYUN 1C DEB", "group": "fengyun-1c-debris", "lat": 48.99673764050613, "lon": 20.350201911070858, "alt_km": 912.947170128723, "timestamp": "2025-12-18T13:51:49.958516+00:00", "meta": {"OBJECT_NAME": "FENGYUN 1C DEB", "OBJECT_ID": "1999-025WH", "EPOCH": "2025-12-18T01:47:32.703648", "MEAN_MOTION": 13.89871135, "ECCENTRICITY": 0.01110234, "INCLINATION": 99.4834, "RA_OF_ASC_NODE": 30.9225, "ARG_OF_PERICENTER": 328.9386, "MEAN_ANOMALY": 84.4697, "EPHEMERIS_TYPE": 0, "CLASSIFICATION_TYPE": "U", "NORAD_CAT_ID": 30224, "ELEMENT_SET_NO": 999, "REV_AT_EPOCH": 95815, "BSTAR": 0.00031766486, "MEAN_MOTION_DOT": 3.63e-06, "MEAN_MOTION_DDOT": 0}, "tle": {"line1": "1 30224U 99025WH  25352.07468407  .00000363  00000+0  31766-3 0  9996", "line2": "2 30224  99.4834  30.9225 0111023 328.9386  84.4697 13.89871135958150"}}, "geometry": {"type": "Point", "coordinates": [20.350201911070858, 48.99673764050613]}}, {"type": "Feature", "properties": {"norad_id": 30225, "name": "FENGYUN 1C DEB", "group": "fengyun-1c-debris", "lat": 27.803413687681513, "lon": 14.570053325460105, "alt_km": 785.4954756651478, "timestamp": "2025-12-18T13:51:49.958527+00:00", "meta": {"OBJECT_NAME": "FENGYUN 1C DEB", "OBJECT_ID": "1999-025WJ", "EPOCH": "2025-12-17T16:14:40.164864", "MEAN_MOTION": 14.15187533, "ECCENTRICITY": 0.01004129, "INCLINATION": 98.6594, "RA_OF_ASC_NODE": 18.3047, "ARG_OF_PERICENTER": 71.9512, "MEAN_ANOMALY": 50.3077, "EPHEMERIS_TYPE": 0, "CLASSIFICATION_TYPE": "U", "NORAD_CAT_ID": 30225, "ELEMENT_SET_NO": 999, "REV_AT_EPOCH": 97606, "BSTAR": 0.00014212322, "MEAN_MOTION_DOT": 2.48e-06, "MEAN_MOTION_DDOT": 0}, "tle": {"line1": "1 30225U 99025WJ  25351.67685376  .00000248  00000+0  14212-3 0  9997", "line2": "2 30225  98.6594  18.3047 0100412  71.9512  50.3077 14.15187533976069"}}, "geometry": {"type": "Point", "coordinates": [14.570053325460105, 27.803413687681513]}}, {"type": "Feature", "properties": {"norad_id": 30229, "name": "FENGYUN 1C DEB", "group": "fengyun-1c-debris", "lat": 38.26926456882859, "lon": -120.01249489526164, "alt_km": 700.666648002586, "timestamp": "2025-12-18T13:51:49.958537+00:00", "meta": {"OBJECT_NAME": "FENGYUN 1C DEB", "OBJECT_ID": "1999-025WN", "EPOCH": "2025-12-18T03:36:33.154272", "MEAN_MOTION": 14.60635176, "ECCENTRICITY": 0.00371625, "INCLINATION": 99.0627, "RA_OF_ASC_NODE": 52.2868, "ARG_OF_PERICENTER": 23.9515, "MEAN_ANOMALY": 31.2897, "EPHEMERIS_TYPE": 0, "CLASSIFICATION_TYPE": "U", "NORAD_CAT_ID": 30229, "ELEMENT_SET_NO": 999, "REV_AT_EPOCH": 99005, "BSTAR": 0.001345395, "MEAN_MOTION_DOT": 6.559e-05, "MEAN_MOTION_DDOT": 0}, "tle": {"line1": "1 30229U 99025WN  25352.15038373  .00006559  00000+0  13454-2 0  9991", "line2": "2 30229  99.0627  52.2868 0037162  23.9515  31.2897 14.60635176990058"}}, "geometry": {"type": "Point", "coordinates": [-120.01249489526164, 38.26926456882859]}}, {"type": "Feature", "properties": {"norad_id": 30231, "name": "FENGYUN 1C DEB", "group": "fengyun-1c-debris", "lat": 58.91248102946826, "lon": 22.333080470249328, "alt_km": 784.596808936024, "timestamp": "2025-12-18T13:51:49.958547+00:00", "meta": {"OBJECT_NAME": "FENGYUN 1C DEB", "OBJECT_ID": "1999-025WQ", "EPOCH": "2025-12-18T01:57:11.569824", "MEAN_MOTION": 14.11656571, "ECCENTRICITY": 0.01281774, "INCLINATION": 98.8047, "RA_OF_ASC_NODE": 36.7415, "ARG_OF_PERICENTER": 14.1074, "MEAN_ANOMALY": 44.2789, "EPHEMERIS_TYPE": 0, "CLASSIFICATION_TYPE": "U", "NORAD_CAT_ID": 30231, "ELEMENT_SET_NO": 999, "REV_AT_EPOCH": 97095, "BSTAR": 0.0005055034, "MEAN_MOTION_DOT": 9.5e-06, "MEAN_MOTION_DDOT": 0}, "tle": {"line1": "1 30231U 99025WQ  25352.08138391  .00000950  00000+0  50550-3 0  9995", "line2": "2 30231  98.8047  36.7415 0128177  14.1074  44.2789 14.11656571970957"}}, "geometry": {"type": "Point", "coordinates": [22.333080470249328, 58.91248102946826]}}, {"type": "Feature", "properties": {"norad_id": 30232, "name": "FENGYUN 1C DEB", "group": "fengyun-1c-debris", "lat": 11.107996516434357, "lon": -168.66371168418226, "alt_km": 608.5380190272699, "timestamp": "2025-12-18T13:51:49.958557+00:00", "meta": {"OBJECT_NAME": "FENGYUN 1C DEB", "OBJECT_ID": "1999-025WR", "EPOCH": "2025-12-18T01:22:52.356288", "MEAN_MOTION": 14.63632057, "ECCENTRICITY": 0.01356804, "INCLINATION": 98.6931, "RA_OF_ASC_NODE": 192.5093, "ARG_OF_PERICENTER": 333.3642, "MEAN_ANOMALY": 178.1086, "EPHEMERIS_TYPE": 0, "CLASSIFICATION_TYPE": "U", "NORAD_CAT_ID": 30232, "ELEMENT_SET_NO": 999, "REV_AT_EPOCH": 99829, "BSTAR": 0.00057580068, "MEAN_MOTION_DOT": 3.36e-05, "MEAN_MOTION_DDOT": 0}, "tle": {"line1": "1 30232U 99025WR  25352.05755042  .00003360  00000+0  57580-3 0  9999", "line2": "2 30232  98.6931 192.5093 0135680 333.3642 178.1086 14.63632057998299"}}, "geometry": {"type": "Point", "coordinates": [-168.66371168418226, 11.107996516434357]}}, {"type": "Feature", "properties": {"norad_id": 30234, "name": "FENGYUN 1C DEB", "group": "fengyun-1c-debris", "lat": 10.565186399851072, "lon": 1.560251951281135, "alt_km": 804.7716186506113, "timestamp": "2025-12-18T13:51:49.958567+00:00", "meta": {"OBJECT_NAME": "FENGYUN 1C DEB", "OBJECT_ID": "1999-025WT", "EPOCH": "2025-12-18T00:22:47.674848", "MEAN_MOTION": 14.16871661, "ECCENTRICITY": 0.00669185, "INCLINATION": 98.6336, "RA_OF_ASC_NODE": 2.6388, "ARG_OF_PERICENTER": 60.204, "MEAN_ANOMALY": 327.0188, "EPHEMERIS_TYPE": 0, "CLASSIFICATION_TYPE": "U", "NORAD_CAT_ID": 30234, "ELEMENT_SET_NO": 999, "REV_AT_EPOCH": 97531, "BSTAR": 0.00029554059, "MEAN_MOTION_DOT": 5.63e-06, "MEAN_MOTION_DDOT": 0}, "tle": {"line1": "1 30234U 99025WT  25352.01582957  .00000563  00000+0  29554-3 0  9992", "line2": "2 30234  98.6336   2.6388 0066918  60.2040 327.0188 14.16871661975313"}}, "geometry": {"type": "Point", "coordinates": [1.560251951281135, 10.565186399851072]}}, {"type": "Feature", "properties": {"norad_id": 30235, "name": "FENGYUN 1C DEB", "group": "fengyun-1c-debris", "lat": 18.53475299578088, "lon": -166.46466016222863, "alt_km": 808.2587561214441, "timestamp": "2025-12-18T13:51:49.958577+00:00", "meta": {"OBJECT_NAME": "FENGYUN 1C DEB", "OBJECT_ID": "1999-025WU", "EPOCH": "2025-12-18T01:27:00.669888", "MEAN_MOTION": 14.08785674, "ECCENTRICITY": 0.01535695, "INCLINATION": 98.7491, "RA_OF_ASC_NODE": 10.0737, "ARG_OF_PERICENTER": 223.4359, "MEAN_ANOMALY": 197.4495, "EPHEMERIS_TYPE": 0, "CLASSIFICATION_TYPE": "U", "NORAD_CAT_ID": 30235, "ELEMENT_SET_NO": 999, "REV_AT_EPOCH": 96968, "BSTAR": 0.00035217716, "MEAN_MOTION_DOT": 6.34e-06, "MEAN_MOTION_DDOT": 0}, "tle": {"line1": "1 30235U 99025WU  25352.06042442  .00000634  00000+0  35218-3 0  9991", "line2": "2 30235  98.7491  10.0737 0153569 223.4359 197.4495 14.08785674969685"}}, "geometry": {"type": "Point", "coordinates": [-166.46466016222863, 18.53475299578088]}}, {"type": "Feature", "properties": {"norad_id": 30237, "name": "FENGYUN 1C DEB", "group": "fengyun-1c-debris", "lat": 50.106411297656884, "lon": 84.80315954299907, "alt_km": 756.421222975594, "timestamp": "2025-12-18T13:51:49.958587+00:00", "meta": {"OBJECT_NAME": "FENGYUN 1C DEB", "OBJECT_ID": "1999-025WW", "EPOCH": "2025-12-18T05:34:06.248928", "MEAN_MOTION": 14.40966921, "ECCENTRICITY": 0.00144785, "INCLINATION": 98.8263, "RA_OF_ASC_NODE": 95.1586, "ARG_OF_PERICENTER": 288.1733, "MEAN_ANOMALY": 130.692, "EPHEMERIS_TYPE": 0, "CLASSIFICATION_TYPE": "U", "NORAD_CAT_ID": 30237, "ELEMENT_SET_NO": 999, "REV_AT_EPOCH": 97777, "BSTAR": 0.0019681428, "MEAN_MOTION_DOT": 6.288e-05, "MEAN_MOTION_DDOT": 0}, "tle": {"line1": "1 30237U 99025WW  25352.23201677  .00006288  00000+0  19681-2 0  9995", "line2": "2 30237  98.8263  95.1586 0014478 288.1733 130.6920 14.40966921977773"}}, "geometry": {"type": "Point", "coordinates": [84.80315954299907, 50.106411297656884]}}, {"type": "Feature", "properties": {"norad_id": 30239, "name": "FENGYUN 1C DEB", "group": "fengyun-1c-debris", "lat": 24.41015285052121, "lon": 134.73207915545544, "alt_km": 846.0981779723124, "timestamp": "2025-12-18T13:51:49.958598+00:00", "meta": {"OBJECT_NAME": "FENGYUN 1C DEB", "OBJECT_ID": "1999-025WY", "EPOCH": "2025-12-16T09:01:14.767968", "MEAN_MOTION": 11.38164037, "ECCENTRICITY": 0.1348508, "INCLINATION": 99.5745, "RA_OF_ASC_NODE": 137.6508, "ARG_OF_PERICENTER": 23.9596, "MEAN_ANOMALY": 341.8618, "EPHEMERIS_TYPE": 0, "CLASSIFICATION_TYPE": "U", "NORAD_CAT_ID": 30239, "ELEMENT_SET_NO": 999, "REV_AT_EPOCH": 54576, "BSTAR": 0.017092621, "MEAN_MOTION_DOT": 5.72e-05, "MEAN_MOTION_DDOT": 0}, "tle": {"line1": "1 30239U 99025WY  25350.37586537  .00005720  00000+0  17093-1 0  9995", "line2": "2 30239  99.5745 137.6508 1348508  23.9596 341.8618 11.38164037545763"}}, "geometry": {"type": "Point", "coordinates": [134.73207915545544, 24.41015285052121]}}, {"type": "Feature", "properties": {"norad_id": 30241, "name": "FENGYUN 1C DEB", "group": "fengyun-1c-debris", "lat": 40.333763456186745, "lon": 117.68945875708998, "alt_km": 760.2491365463738, "timestamp": "2025-12-18T13:51:49.958608+00:00", "meta": {"OBJECT_NAME": "FENGYUN 1C DEB", "OBJECT_ID": "1999-025XA", "EPOCH": "2025-12-18T07:10:27.187392", "MEAN_MOTION": 14.09552866, "ECCENTRICITY": 0.01467104, "INCLINATION": 99.1487, "RA_OF_ASC_NODE": 125.2705, "ARG_OF_PERICENTER": 65.651, "MEAN_ANOMALY": 2.4336, "EPHEMERIS_TYPE": 0, "CLASSIFICATION_TYPE": "U", "NORAD_CAT_ID": 30241, "ELEMENT_SET_NO": 999, "REV_AT_EPOCH": 96990, "BSTAR": 0.00021540102, "MEAN_MOTION_DOT": 3.71e-06, "MEAN_MOTION_DDOT": 0}, "tle": {"line1": "1 30241U 99025XA  25352.29892578  .00000371  00000+0  21540-3 0  9997", "line2": "2 30241  99.1487 125.2705 0146710  65.6510   2.4336 14.09552866969901"}}, "geometry": {"type": "Point", "coordinates": [117.68945875708998, 40.333763456186745]}}]}